IRIDIUM 921 [-]         
1 24873U 97034E   24097.89433054  .00020650  00000+0  61706-3 0  9990
2 24873  86.3834 323.2943 0005255 135.6969 224.4703 15.34457277464236
IRIDIUM 26 [-]          
1 24903U 97043A   24097.92165524  .00000430  00000+0  14062-3 0  9999
2 24903  86.3906 293.6814 0002307  91.1017 269.0444 14.36267889394106
IRIDIUM 22 [-]          
1 24907U 97043E   24097.92226212  .00000393  00000+0  13089-3 0  9991
2 24907  86.3913 296.8640 0002053  90.3658 269.7774 14.35161064394188
DUMMY MASS 1 [-]        
1 24925U 97048A   24097.14894949  .00000422  00000+0  44981-4 0  9997
2 24925  86.3368 337.2891 0004524 248.1448 111.9295 14.86124010440202
DUMMY MASS 2 [-]        
1 24926U 97048B   24097.91466910  .00000411  00000+0  43971-4 0  9992
2 24926  86.3369 338.4653 0005228 261.2234  98.8398 14.85883589440102
IRIDIUM 29 [-]          
1 24944U 97051A   24097.87781634  .00000364  00000+0  11938-3 0  9998
2 24944  86.3960 326.8189 0001907  90.7735 269.3680 14.35620507390652
IRIDIUM 33 [-]          
1 24946U 97051C   24097.90804992  .00000254  00000+0  83572-4 0  9999
2 24946  86.3874 326.0630 0009872  67.7759 292.4483 14.34303020390206
IRIDIUM 28 [-]          
1 24948U 97051E   24097.85924624  .00000356  00000+0  11447-3 0  9994
2 24948  86.3960 324.5924 0002552  85.9581 274.1908 14.36569357391182
